CSS (TIANHE)            
1 48274U 21035A   23233.14212260  .00028945  00000+0  33742-3 0  9996
2 48274  41.4731 121.0495 0009497 204.8446 155.1937 15.60962671131982
